IRIDIUM 26              
1 24903U 97043A   25083.86603748  .00001137  00000+0  37699-3 0  9999
2 24903  86.3988 146.0424 0002286  88.4883 271.6577 14.37048826444639
IRIDIUM 22              
1 24907U 97043E   25083.93559405  .00001021  00000+0  34572-3 0  9990
2 24907  86.4000 149.4758 0002216  94.2630 265.8820 14.35873698444686
DUMMY MASS 1            
1 24925U 97048A   25083.28712411  .00001402  00000+0  15390-3 0  9991
2 24925  86.3416 174.5589 0009032  88.5930 271.6329 14.86883609492512
DUMMY MASS 2            
1 24926U 97048B   25083.70632876  .00001394  00000+0  15390-3 0  9995
2 24926  86.3417 175.9549 0009816  96.2306 264.0037 14.86637791492351
IRIDIUM 29              
1 24944U 97051A   25083.70938432  .00001351  00000+0  45542-3 0  9991
2 24944  86.4035 179.2996 0002136 100.8954 259.2483 14.36366500441144
IRIDIUM 33              
1 24946U 97051C   25083.52953373  .00000956  00000+0  33013-3 0  9994
2 24946  86.3949 178.6289 0007757  10.7950 349.3411 14.34823619440616
IRIDIUM 28              
1 24948U 97051E   25083.52859515  .00001312  00000+0  43377-3 0  9990
2 24948  86.4041 176.9427 0002201  83.4908 276.6540 14.37296265441751
IRIDIUM 36              
1 24967U 97056C   25083.57436502  .00001460  00000+0  48138-3 0  9992
2 24967  86.4017 208.4971 0001851  91.0844 269.0566 14.37501066440069
